{
  "norad_id": 56120,
  "name": "STARLINK-6079",
  "history": [
    {
      "epoch": "2026-04-14T13:32:42.502848Z",
      "apogee_km": 489.72609857568386,
      "perigee_km": 478.5414207099575,
      "latitude_deg": 3.9489893206775586e-05,
      "longitude_deg": -101.26214501400015,
      "height_km": 480.41517769027513,
      "semi_major_axis_km": 6862.270759642821,
      "eccentricity": 0.00081494,
      "inclination_deg": 43.0004,
      "raan_deg": 304.6539,
      "arg_perigee_deg": 308.7224,
      "mean_anomaly_deg": 51.2899,
      "mean_motion_rev_day": 15.27217836
    },
    {
      "epoch": "2026-04-14T21:24:05.516064Z",
      "apogee_km": 486.930350241063,
      "perigee_km": 483.63316387017403,
      "latitude_deg": -1.5874057854423313e-05,
      "longitude_deg": 138.72555746050074,
      "height_km": 483.9836736499594,
      "semi_major_axis_km": 6863.418757055619,
      "eccentricity": 0.0002402,
      "inclination_deg": 43.0002,
      "raan_deg": 302.8102,
      "arg_perigee_deg": 49.4554,
      "mean_anomaly_deg": 310.6506,
      "mean_motion_rev_day": 15.26834681
    },
    {
      "epoch": "2026-04-18T00:00:04.000320Z",
      "apogee_km": 484.27165040779437,
      "perigee_km": 481.96832643678135,
      "latitude_deg": -11.952504412765935,
      "longitude_deg": -87.84575899015863,
      "height_km": 484.9688798444532,
      "semi_major_axis_km": 6861.256988422288,
      "eccentricity": 0.00016785,
      "inclination_deg": 43.0,
      "raan_deg": 285.2489,
      "arg_perigee_deg": 275.4494,
      "mean_anomaly_deg": 282.0625,
      "mean_motion_rev_day": 15.27556325
    },
    {
      "epoch": "2026-04-19T20:38:57.687360Z",
      "apogee_km": 484.4179818773655,
      "perigee_km": 481.73387537968574,
      "latitude_deg": -5.578872974901094e-05,
      "longitude_deg": 117.04230445227111,
      "height_km": 482.65863232122945,
      "semi_major_axis_km": 6861.212928628525,
      "eccentricity": 0.0001956,
      "inclination_deg": 43.0018,
      "raan_deg": 274.7417,
      "arg_perigee_deg": 278.3398,
      "mean_anomaly_deg": 81.7231,
      "mean_motion_rev_day": 15.27571039
    },
    {
      "epoch": "2026-04-19T22:13:06.902976Z",
      "apogee_km": 484.3104288980503,
      "perigee_km": 481.767677052816,
      "latitude_deg": 8.10830600362247e-06,
      "longitude_deg": 93.07062826362728,
      "height_km": 482.6589222308269,
      "semi_major_axis_km": 6861.176052975433,
      "eccentricity": 0.0001853,
      "inclination_deg": 43.0013,
      "raan_deg": 274.3728,
      "arg_perigee_deg": 277.1093,
      "mean_anomaly_deg": 82.9548,
      "mean_motion_rev_day": 15.27583354
    },
    {
      "epoch": "2026-04-21T19:43:38.874144Z",
      "apogee_km": 484.0331660075335,
      "perigee_km": 482.0557735079492,
      "latitude_deg": 1.5382338955298805e-05,
      "longitude_deg": 117.85933503767572,
      "height_km": 482.7610346333425,
      "semi_major_axis_km": 6861.181469757741,
      "eccentricity": 0.0001441,
      "inclination_deg": 43.0007,
      "raan_deg": 263.6637,
      "arg_perigee_deg": 273.4939,
      "mean_anomaly_deg": 86.5748,
      "mean_motion_rev_day": 15.27581545
    },
    {
      "epoch": "2026-04-22T16:07:41.053152Z",
      "apogee_km": 485.1158044342392,
      "perigee_km": 480.8173230515531,
      "latitude_deg": 4.786973187993223e-06,
      "longitude_deg": 166.2145193514349,
      "height_km": 482.8257003859159,
      "semi_major_axis_km": 6861.103563742896,
      "eccentricity": 0.00031325,
      "inclination_deg": 43.0008,
      "raan_deg": 258.8658,
      "arg_perigee_deg": 267.8366,
      "mean_anomaly_deg": 92.2127,
      "mean_motion_rev_day": 15.27607563
    },
    {
      "epoch": "2026-04-24T19:54:50.748192Z",
      "apogee_km": 484.2143662611643,
      "perigee_km": 481.8925394119242,
      "latitude_deg": -3.0556699043533606e-05,
      "longitude_deg": 95.10320580519956,
      "height_km": 483.36308469364104,
      "semi_major_axis_km": 6861.190452836544,
      "eccentricity": 0.0001692,
      "inclination_deg": 43.0001,
      "raan_deg": 246.6717,
      "arg_perigee_deg": 242.6748,
      "mean_anomaly_deg": 117.3931,
      "mean_motion_rev_day": 15.27578545
    },
    {
      "epoch": "2026-04-25T19:27:11.587392Z",
      "apogee_km": 484.0347250443483,
      "perigee_km": 482.06282025328983,
      "latitude_deg": -1.0790805546222639e-05,
      "longitude_deg": 95.51297929460038,
      "height_km": 483.1131195207346,
      "semi_major_axis_km": 6861.185772648819,
      "eccentricity": 0.0001437,
      "inclination_deg": 43.0007,
      "raan_deg": 241.135,
      "arg_perigee_deg": 253.0387,
      "mean_anomaly_deg": 107.0307,
      "mean_motion_rev_day": 15.27580108
    },
    {
      "epoch": "2026-04-26T18:59:32.628768Z",
      "apogee_km": 484.1115672515316,
      "perigee_km": 482.00120139038245,
      "latitude_deg": -5.2281169450639035e-06,
      "longitude_deg": 95.91999355923463,
      "height_km": 483.01585213111025,
      "semi_major_axis_km": 6861.193384320957,
      "eccentricity": 0.00015379,
      "inclination_deg": 43.0012,
      "raan_deg": 235.5964,
      "arg_perigee_deg": 260.0368,
      "mean_anomaly_deg": 100.031,
      "mean_motion_rev_day": 15.27577566
    },
    {
      "epoch": "2026-04-27T01:16:10.337952Z",
      "apogee_km": 484.12084241584125,
      "perigee_km": 482.0029275440256,
      "latitude_deg": 3.992864855489568e-05,
      "longitude_deg": 0.028227235032950757,
      "height_km": 482.98258345838576,
      "semi_major_axis_km": 6861.198884979934,
      "eccentricity": 0.00015434,
      "inclination_deg": 43.0012,
      "raan_deg": 234.1195,
      "arg_perigee_deg": 262.1965,
      "mean_anomaly_deg": 97.8712,
      "mean_motion_rev_day": 15.27575729
    },
    {
      "epoch": "2026-04-28T18:04:15.482208Z",
      "apogee_km": 484.077153415722,
      "perigee_km": 482.1148407785522,
      "latitude_deg": 1.6702433775503676e-05,
      "longitude_deg": 96.7304142331426,
      "height_km": 482.98082800165673,
      "semi_major_axis_km": 6861.232997097137,
      "eccentricity": 0.000143,
      "inclination_deg": 43.001,
      "raan_deg": 224.5188,
      "arg_perigee_deg": 263.6795,
      "mean_anomaly_deg": 96.3894,
      "mean_motion_rev_day": 15.27564337
    },
    {
      "epoch": "2026-04-29T17:36:35.770176Z",
      "apogee_km": 484.32000532207076,
      "perigee_km": 481.8417334276537,
      "latitude_deg": 1.4667172303592855e-05,
      "longitude_deg": 97.14096812285264,
      "height_km": 482.8159318625278,
      "semi_major_axis_km": 6861.217869374862,
      "eccentricity": 0.0001806,
      "inclination_deg": 43.0022,
      "raan_deg": 218.9806,
      "arg_perigee_deg": 271.9523,
      "mean_anomaly_deg": 88.1122,
      "mean_motion_rev_day": 15.27569389
    },
    {
      "epoch": "2026-04-29T23:53:13.272864Z",
      "apogee_km": 484.311787762972,
      "perigee_km": 481.83530242882443,
      "latitude_deg": 7.943947882475547e-06,
      "longitude_deg": 1.2496091371181444,
      "height_km": 482.8198652303115,
      "semi_major_axis_km": 6861.210545095898,
      "eccentricity": 0.00018047,
      "inclination_deg": 43.0023,
      "raan_deg": 217.5033,
      "arg_perigee_deg": 271.433,
      "mean_anomaly_deg": 88.6315,
      "mean_motion_rev_day": 15.27571835
    },
    {
      "epoch": "2026-05-01T22:57:54.724032Z",
      "apogee_km": 484.37800562686516,
      "perigee_km": 481.7364458499551,
      "latitude_deg": -1.3380948788706574e-05,
      "longitude_deg": 2.0682392580468814,
      "height_km": 482.45673202753954,
      "semi_major_axis_km": 6861.19422573841,
      "eccentricity": 0.0001925,
      "inclination_deg": 43.0025,
      "raan_deg": 206.4281,
      "arg_perigee_deg": 286.625,
      "mean_anomaly_deg": 73.439,
      "mean_motion_rev_day": 15.27577285
    },
    {
      "epoch": "2026-05-03T15:45:57.200256Z",
      "apogee_km": 484.0932726352776,
      "perigee_km": 481.79206651410186,
      "latitude_deg": 3.4478767229465205e-05,
      "longitude_deg": 98.78034372047343,
      "height_km": 482.45701414550865,
      "semi_major_axis_km": 6861.079669574689,
      "eccentricity": 0.0001677,
      "inclination_deg": 43.0019,
      "raan_deg": 196.8261,
      "arg_perigee_deg": 283.2024,
      "mean_anomaly_deg": 76.8641,
      "mean_motion_rev_day": 15.27615543
    }
  ]
}